NORAD_CAT_ID,OBJECT_NAME,OBJECT_TYPE,EPOCH,MEAN_MOTION,ECCENTRICITY,INCLINATION,RA_OF_ASC_NODE,ARG_OF_PERICENTER,MEAN_ANOMALY,BSTAR,MEAN_MOTION_DOT,MEAN_MOTION_DDOT,TLE_LINE0,TLE_LINE1,TLE_LINE2,SEMIMAJOR_AXIS,PERIOD,APOGEE,PERIGEE,DECAYED
52847.0,STARLINK-4206,PAYLOAD,2022-12-28 18:17:11,15.08850374,0.0001849,53.2146,232.6731,52.4581,307.6579,0.00012981,1.779e-05,0.0,0 STARLINK-4206,1 52847U 22062T   22362.76193543  .00001779  00000-0  12981-3 0  9999,2 52847  53.2146 232.6731 0001849  52.4581 307.6579 15.08850374 30113,6917.849,95.437,540.993,538.435,0.0
52847.0,STARLINK-4206,PAYLOAD,2022-12-29 00:38:45,15.08832241,0.0001974,53.2146,231.4838,51.6241,308.4929,-6.6881e-05,-1.352e-05,0.0,0 STARLINK-4206,1 52847U 22062T   22363.02691132 -.00001352  00000-0 -66881-4 0  9994,2 52847  53.2146 231.4838 0001974  51.6241 308.4929 15.08832241 30156,6917.904,95.438,541.135,538.404,0.0
52847.0,STARLINK-4206,PAYLOAD,2022-12-29 08:35:40,15.08835355,0.0001885999999999,53.2145,229.9971,52.2384,307.8779,-5.0469e-05,-1.091e-05,0.0,0 STARLINK-4206,1 52847U 22062T   22363.35810986 -.00001091  00000-0 -50469-4 0  9995,2 52847  53.2145 229.9971 0001886  52.2384 307.8779 15.08835355 29717,6917.895,95.438,541.064,538.455,0.0
52847.0,STARLINK-4206,PAYLOAD,2022-12-29 21:18:45,15.08840084,0.0001893,53.2143,227.6182,53.1468,306.9698,8.4636e-06,-1.53e-06,0.0,0 STARLINK-4206,1 52847U 22062T   22363.88802591 -.00000153  00000-0  84636-5 0  9997,2 52847  53.2143 227.6182 0001893  53.1468 306.9698 15.08840084 30284,6917.88,95.438,541.055,538.436,0.0
52847.0,STARLINK-4206,PAYLOAD,2022-12-30 08:26:26,15.0884955,0.0001895,53.2144,225.5362,54.2179,305.8989,6.3532e-05,7.23e-06,0.0,0 STARLINK-4206,1 52847U 22062T   22364.35169846  .00000723  00000-0  63532-4 0  9992,2 52847  53.2144 225.5362 0001895  54.2179 305.8989 15.08849550 30351,6917.851,95.437,541.0269999999998,538.405,0.0
52847.0,STARLINK-4206,PAYLOAD,2022-12-30 21:09:32,15.08834253,0.0002105,53.2135,223.1573,55.2466,304.8724,0.00022965,3.368e-05,0.0,0 STARLINK-4206,1 52847U 22062T   22364.88162995  .00003368  00000-0  22965-3 0  9990,2 52847  53.2135 223.1573 0002105  55.2466 304.8724 15.08834253 30433,6917.898,95.438,541.219,538.307,0.0
52847.0,STARLINK-4206,PAYLOAD,2022-12-31 08:17:14,15.08840512,0.0002108,53.2142,221.076,55.0596,305.0593,0.00025095,3.708e-05,0.0,0 STARLINK-4206,1 52847U 22062T   22365.34530822  .00003708  00000-0  25095-3 0  9995,2 52847  53.2142 221.0760 0002108  55.0596 305.0593 15.08840512 30017,6917.879,95.438,541.202,538.286,0.0
52847.0,STARLINK-4206,PAYLOAD,2022-12-31 17:49:32,15.08865304,0.0002319,53.2146,219.2908,56.9355,303.186,-0.00043038,-7.136e-05,0.0,0 STARLINK-4206,1 52847U 22062T   22365.74273306 -.00007136  00000-0 -43038-3 0  9998,2 52847  53.2146 219.2908 0002319  56.9355 303.1860 15.08865304 30563,6917.803000000001,95.436,541.2719999999998,538.064,0.0
52847.0,STARLINK-4206,PAYLOAD,2023-01-01 00:11:06,15.08839601,0.0002068,53.2144,218.1023,51.7024,308.4154,9.081e-05,1.157e-05,0.0,0 STARLINK-4206,1 52847U 22062T   23001.00770918  .00001157  00000-0  90810-4 0  9992,2 52847  53.2144 218.1023 0002068  51.7024 308.4154 15.08839601 30604,6917.882,95.438,541.177,538.316,0.0
52847.0,STARLINK-4206,PAYLOAD,2023-01-01 14:29:35,15.08826831,0.0002046999999999,53.2137,215.4256,53.5304,306.5876,-8.2706e-06,-4.2e-06,0.0,0 STARLINK-4206,1 52847U 22062T   23001.60387864 -.00000420  00000-0 -82706-5 0  9992,2 52847  53.2137 215.4256 0002047  53.5304 306.5876 15.08826831 30692,6917.920999999999,95.438,541.202,538.37,0.0
52847.0,STARLINK-4206,PAYLOAD,2023-01-01 20:51:07,15.08827976,0.0002029,53.214,214.2356,54.2478,305.8703,-2.1537e-05,-6.31e-06,0.0,0 STARLINK-4206,1 52847U 22062T   23001.86883992 -.00000631  00000-0 -21537-4 0  9991,2 52847  53.2140 214.2356 0002029  54.2478 305.8703 15.08827976 30247,6917.917,95.438,541.186,538.378,0.0
52847.0,STARLINK-4206,PAYLOAD,2023-01-02 14:20:22,15.08829997,0.0001899,53.2139,210.9647,49.5263,310.5894,1.063e-05,-1.19e-06,0.0,0 STARLINK-4206,1 52847U 22062T   23002.59748358 -.00000119  00000-0  10630-4 0  9990,2 52847  53.2139 210.9647 0001899  49.5263 310.5894 15.08829997 30355,6917.911,95.438,541.09,538.462,0.0
52847.0,STARLINK-4206,PAYLOAD,2023-01-02 22:17:18,15.08830892,0.000195,53.2139,209.4778,50.9957,309.1209,6.4432e-05,7.37e-06,0.0,0 STARLINK-4206,1 52847U 22062T   23002.92868340  .00000737  00000-0  64432-4 0  9995,2 52847  53.2139 209.4778 0001950  50.9957 309.1209 15.08830892 30896,6917.908,95.438,541.122,538.424,0.0
52847.0,STARLINK-4206,PAYLOAD,2023-01-03 14:11:09,15.08831387,0.0001943,53.2141,206.5042,50.8325,309.284,0.00013855,1.917e-05,0.0,0 STARLINK-4206,1 52847U 22062T   23003.59108574  .00001917  00000-0  13855-3 0  9998,2 52847  53.2141 206.5042 0001943  50.8325 309.2840 15.08831387 30501,6917.906999999997,95.438,541.116,538.428,0.0
52847.0,STARLINK-4206,PAYLOAD,2023-01-04 06:05:00,15.08840224,0.0001986,53.2141,203.5304,52.3465,307.7707,0.00017002,2.419e-05,0.0,0 STARLINK-4206,1 52847U 22062T   23004.25348248  .00002419  00000-0  17002-3 0  9992,2 52847  53.2141 203.5304 0001986  52.3465 307.7707 15.08840224 31098,6917.88,95.438,541.119,538.371,0.0
52847.0,STARLINK-4206,PAYLOAD,2023-01-05 05:55:48,15.08838311,0.0001784,53.2135,199.0697,50.0885,310.0264,4.403e-05,4.13e-06,0.0,0 STARLINK-4206,1 52847U 22062T   23005.24708557  .00000413  00000-0  44030-4 0  9999,2 52847  53.2135 199.0697 0001784  50.0885 310.0264 15.08838311 31248,6917.886,95.438,540.985,538.516,0.0
52847.0,STARLINK-4206,PAYLOAD,2023-01-05 13:52:43,15.0884054,0.0001973,53.2144,197.5828,53.6744,306.443,4.0687e-05,3.59e-06,0.0,0 STARLINK-4206,1 52847U 22062T   23005.57828474  .00000359  00000-0  40687-4 0  9999,2 52847  53.2144 197.5828 0001973  53.6744 306.4430 15.08840540 30802,6917.879,95.438,541.109,538.379,0.0
52847.0,STARLINK-4206,PAYLOAD,2023-01-06 05:46:34,15.08846439,0.000207,53.2141,194.6083,53.5346,306.5836,3.983e-05,3.46e-06,0.0,0 STARLINK-4206,1 52847U 22062T   23006.24067968  .00000346  00000-0  39830-4 0  9991,2 52847  53.2141 194.6083 0002070  53.5346 306.5836 15.08846439 31395,6917.861,95.437,541.158,538.294,0.0
52847.0,STARLINK-4206,PAYLOAD,2023-01-06 21:40:26,15.0883865,0.0002325,53.2134,191.6347,57.5224,302.5992,8.1474e-05,1.009e-05,0.0,0 STARLINK-4206,1 52847U 22062T   23006.90308319  .00001009  00000-0  81474-4 0  9990,2 52847  53.2134 191.6347 0002325  57.5224 302.5992 15.08838650 31002,6917.885,95.438,541.3580000000002,538.141,0.0
52847.0,STARLINK-4206,PAYLOAD,2023-01-07 21:31:13,15.08844103,0.0001981,53.2141,187.1741,54.5088,305.6088,7.012899999999999e-05,8.28e-06,0.0,0 STARLINK-4206,1 52847U 22062T   23007.89668201  .00000828  00000-0  70129-4 0  9991,2 52847  53.2141 187.1741 0001981  54.5088 305.6088 15.08844103 31156,6917.868,95.437,541.1030000000002,538.362,0.0
52847.0,STARLINK-4206,PAYLOAD,2023-01-08 05:28:08,15.08847062,0.0001996,53.2145,185.6869,58.2645,301.8541,8.7813e-05,1.11e-05,0.0,0 STARLINK-4206,1 52847U 22062T   23008.22787861  .00001110  00000-0  87813-4 0  9996,2 52847  53.2145 185.6869 0001996  58.2645 301.8541 15.08847062 31698,6917.859,95.437,541.105,538.3430000000002,0.0
52847.0,STARLINK-4206,PAYLOAD,2023-01-08 11:49:41,15.08843328,0.0002022,53.2143,184.498,54.7859,305.3322,0.00016877,2.399e-05,0.0,0 STARLINK-4206,1 52847U 22062T   23008.49283831  .00002399  00000-0  16877-3 0  9994,2 52847  53.2143 184.4980 0002022  54.7859 305.3322 15.08843328 31244,6917.87,95.437,541.134,538.336,0.0
52847.0,STARLINK-4206,PAYLOAD,2023-01-08 18:11:14,15.08840122,0.0002102,53.2147,183.3088,56.0468,304.0724,0.00013039,1.788e-05,0.0,0 STARLINK-4206,1 52847U 22062T   23008.75780232  .00001788  00000-0  13039-3 0  9998,2 52847  53.2147 183.3088 0002102  56.0468 304.0724 15.08840122 31774,6917.88,95.438,541.1990000000002,538.2909999999998,0.0
52847.0,STARLINK-4206,PAYLOAD,2023-01-08 21:22:00,15.08841126,0.0002077,53.2149,182.7139,57.2912,302.828,0.0001162,1.562e-05,0.0,0 STARLINK-4206,1 52847U 22062T   23008.89028233  .00001562  00000-0  11620-3 0  9993,2 52847  53.2149 182.7139 0002077  57.2912 302.8280 15.08841126 31301,6917.877,95.437,541.179,538.305,0.0
52847.0,STARLINK-4206,PAYLOAD,2023-01-09 11:40:28,15.08844149,0.0002053,53.2155,180.0376,55.691,304.4276,4.959e-05,5.01e-06,0.0,0 STARLINK-4206,1 52847U 22062T   23009.48644205  .00000501  00000-0  49590-4 0  9992,2 52847  53.2155 180.0376 0002053  55.6910 304.4276 15.08844149 31396,6917.868,95.437,541.153,538.312,0.0
52847.0,STARLINK-4206,PAYLOAD,2023-01-09 21:12:47,15.08845829,0.0001876,53.2156,178.2533,49.8124,310.3032,6.0648e-05,6.77e-06,0.0,0 STARLINK-4206,1 52847U 22062T   23009.88387870  .00000677  00000-0  60648-4 0  9999,2 52847  53.2156 178.2533 0001876  49.8124 310.3032 15.08845829 31454,6917.863,95.437,541.025,538.43,0.0
52847.0,STARLINK-4206,PAYLOAD,2023-01-10 08:20:29,15.08841736,0.0001864,53.2149,176.1715,50.8207,309.2951,1.1264e-05,-1.09e-06,0.0,0 STARLINK-4206,1 52847U 22062T   23010.34756177 -.00000109  00000-0  11264-4 0  9993,2 52847  53.2149 176.1715 0001864  50.8207 309.2951 15.08841736 32019,6917.875,95.437,541.03,538.451,0.0
52847.0,STARLINK-4206,PAYLOAD,2023-01-10 13:06:38,15.088424800000002,0.000191,53.2151,175.2793,47.6491,312.4663,8.6549e-05,1.09e-05,0.0,0 STARLINK-4206,1 52847U 22062T   23010.54627906  .00001090  00000-0  86549-4 0  9999,2 52847  53.2151 175.2793 0001910  47.6491 312.4663 15.08842480 31550,6917.873000000001,95.437,541.059,538.4159999999998,0.0
52847.0,STARLINK-4206,PAYLOAD,2023-01-10 17:52:48,15.08840846,0.000193,53.2152,174.3871,48.2967,311.819,7.029100000000001e-05,8.31e-06,0.0,0 STARLINK-4206,1 52847U 22062T   23010.74500059  .00000831  00000-0  70291-4 0  9999,2 52847  53.2152 174.3871 0001930  48.2967 311.8190 15.08840846 31580,6917.8780000000015,95.438,541.078,538.408,0.0
